WNISAT 1R               
1 42835U 17042L   26068.86192839  .00004802  00000+0  37840-3 0  9992
2 42835  97.4515 228.7079 0013301 131.3338 228.9034 15.01153186471607
STARLINK-6220           
1 56482U 23064AL  26068.58055367 -.00000499  00000+0 -34061-4 0  9992
2 56482  69.9998 124.7071 0003282 269.8057  90.2726 14.98330554155729
